{"type": "FeatureCollection", "features": [{"type": "Feature", "properties": {"norad_id": 25590, "name": "COSMOS 2361", "group": "musson", "lat": 5.4261526313339274, "lon": 155.30005225991098, "alt_km": 978.8367712348363, "timestamp": "2025-12-23T16:57:12.621911+00:00", "meta": {"OBJECT_NAME": "COSMOS 2361", "OBJECT_ID": "1998-076A", "EPOCH": "2025-12-23T05:39:50.455296", "MEAN_MOTION": 13.7321864, "ECCENTRICITY": 0.00302473, "INCLINATION": 82.9344, "RA_OF_ASC_NODE": 336.3228, "ARG_OF_PERICENTER": 235.2147, "MEAN_ANOMALY": 135.369, "EPHEMERIS_TYPE": 0, "CLASSIFICATION_TYPE": "U", "NORAD_CAT_ID": 25590, "ELEMENT_SET_NO": 999, "REV_AT_EPOCH": 35255, "BSTAR": 4.3948926e-05, "MEAN_MOTION_DOT": 5.6e-07, "MEAN_MOTION_DDOT": 0}, "tle": {"line1": "1 25590U 98076A   25357.23600064  .00000056  00000+0  43949-4 0  9997", "line2": "2 25590  82.9344 336.3228 0030247 235.2147 135.3690 13.73218640352552"}}, "geometry": {"type": "Point", "coordinates": [155.30005225991098, 5.4261526313339274]}}, {"type": "Feature", "properties": {"norad_id": 26818, "name": "COSMOS 2378", "group": "musson", "lat": -74.23869056134279, "lon": -34.50316695666939, "alt_km": 1000.3302057037326, "timestamp": "2025-12-23T16:57:12.621932+00:00", "meta": {"OBJECT_NAME": "COSMOS 2378", "OBJECT_ID": "2001-023A", "EPOCH": "2025-12-23T01:54:20.928096", "MEAN_MOTION": 13.74142797, "ECCENTRICITY": 0.00330436, "INCLINATION": 82.9271, "RA_OF_ASC_NODE": 352.0576, "ARG_OF_PERICENTER": 175.8748, "MEAN_ANOMALY": 248.0135, "EPHEMERIS_TYPE": 0, "CLASSIFICATION_TYPE": "U", "NORAD_CAT_ID": 26818, "ELEMENT_SET_NO": 999, "REV_AT_EPOCH": 23065, "BSTAR": 2.666957e-05, "MEAN_MOTION_DOT": 4e-07, "MEAN_MOTION_DDOT": 0}, "tle": {"line1": "1 26818U 01023A   25357.07940889  .00000040  00000+0  26670-4 0  9996", "line2": "2 26818  82.9271 352.0576 0033043 175.8748 248.0135 13.74142797230651"}}, "geometry": {"type": "Point", "coordinates": [-34.50316695666939, -74.23869056134279]}}, {"type": "Feature", "properties": {"norad_id": 27436, "name": "COSMOS 2389", "group": "musson", "lat": 8.844323985726753, "lon": 117.76361738741406, "alt_km": 1009.4085853471606, "timestamp": "2025-12-23T16:57:12.621945+00:00", "meta": {"OBJECT_NAME": "COSMOS 2389", "OBJECT_ID": "2002-026A", "EPOCH": "2025-12-23T02:12:35.088192", "MEAN_MOTION": 13.75155716, "ECCENTRICITY": 0.00471897, "INCLINATION": 82.9512, "RA_OF_ASC_NODE": 299.3213, "ARG_OF_PERICENTER": 32.5099, "MEAN_ANOMALY": 338.5882, "EPHEMERIS_TYPE": 0, "CLASSIFICATION_TYPE": "U", "NORAD_CAT_ID": 27436, "ELEMENT_SET_NO": 999, "REV_AT_EPOCH": 18291, "BSTAR": 5.6166386e-05, "MEAN_MOTION_DOT": 7e-07, "MEAN_MOTION_DDOT": 0}, "tle": {"line1": "1 27436U 02026A   25357.09207278  .00000070  00000+0  56166-4 0  9993", "line2": "2 27436  82.9512 299.3213 0047189  32.5099 338.5882 13.75155716182916"}}, "geometry": {"type": "Point", "coordinates": [117.76361738741406, 8.844323985726753]}}, {"type": "Feature", "properties": {"norad_id": 27818, "name": "COSMOS 2398", "group": "musson", "lat": 13.56190145924518, "lon": -93.67188043118742, "alt_km": 983.1845597568145, "timestamp": "2025-12-23T16:57:12.621956+00:00", "meta": {"OBJECT_NAME": "COSMOS 2398", "OBJECT_ID": "2003-023A", "EPOCH": "2025-12-23T05:22:57.155232", "MEAN_MOTION": 13.72386871, "ECCENTRICITY": 0.0032709, "INCLINATION": 82.9484, "RA_OF_ASC_NODE": 264.9724, "ARG_OF_PERICENTER": 83.8632, "MEAN_ANOMALY": 69.6264, "EPHEMERIS_TYPE": 0, "CLASSIFICATION_TYPE": "U", "NORAD_CAT_ID": 27818, "ELEMENT_SET_NO": 999, "REV_AT_EPOCH": 12960, "BSTAR": 7.8743298e-05, "MEAN_MOTION_DOT": 8.8e-07, "MEAN_MOTION_DDOT": 0}, "tle": {"line1": "1 27818U 03023A   25357.22427263  .00000088  00000+0  78743-4 0  9992", "line2": "2 27818  82.9484 264.9724 0032709  83.8632  69.6264 13.72386871129605"}}, "geometry": {"type": "Point", "coordinates": [-93.67188043118742, 13.56190145924518]}}, {"type": "Feature", "properties": {"norad_id": 28380, "name": "COSMOS 2407", "group": "musson", "lat": 4.413983370323275, "lon": -154.68061137654678, "alt_km": 951.7897391085526, "timestamp": "2025-12-23T16:57:12.621967+00:00", "meta": {"OBJECT_NAME": "COSMOS 2407", "OBJECT_ID": "2004-028A", "EPOCH": "2025-12-23T02:02:35.798784", "MEAN_MOTION": 13.76314804, "ECCENTRICITY": 0.00398444, "INCLINATION": 82.9596, "RA_OF_ASC_NODE": 205.2329, "ARG_OF_PERICENTER": 26.5976, "MEAN_ANOMALY": 141.6851, "EPHEMERIS_TYPE": 0, "CLASSIFICATION_TYPE": "U", "NORAD_CAT_ID": 28380, "ELEMENT_SET_NO": 999, "REV_AT_EPOCH": 7565, "BSTAR": 4.031765e-05, "MEAN_MOTION_DOT": 5.5e-07, "MEAN_MOTION_DDOT": 0}, "tle": {"line1": "1 28380U 04028A   25357.08513656  .00000055  00000+0  40318-4 0  9990", "line2": "2 28380  82.9596 205.2329 0039844  26.5976 141.6851 13.76314804 75654"}}, "geometry": {"type": "Point", "coordinates": [-154.68061137654678, 4.413983370323275]}}, {"type": "Feature", "properties": {"norad_id": 28521, "name": "COSMOS 2414", "group": "musson", "lat": 4.512049189981645, "lon": 176.9265568649832, "alt_km": 945.7804217451749, "timestamp": "2025-12-23T16:57:12.621978+00:00", "meta": {"OBJECT_NAME": "COSMOS 2414", "OBJECT_ID": "2005-002A", "EPOCH": "2025-12-23T04:49:12.346176", "MEAN_MOTION": 13.87904296, "ECCENTRICITY": 0.00413702, "INCLINATION": 82.9488, "RA_OF_ASC_NODE": 176.7493, "ARG_OF_PERICENTER": 110.6519, "MEAN_ANOMALY": 249.9088, "EPHEMERIS_TYPE": 0, "CLASSIFICATION_TYPE": "U", "NORAD_CAT_ID": 28521, "ELEMENT_SET_NO": 999, "REV_AT_EPOCH": 5940, "BSTAR": 3.8846477e-05, "MEAN_MOTION_DOT": 6.3e-07, "MEAN_MOTION_DDOT": 0}, "tle": {"line1": "1 28521U 05002A   25357.20083734  .00000063  00000+0  38846-4 0  9995", "line2": "2 28521  82.9488 176.7493 0041370 110.6519 249.9088 13.87904296 59401"}}, "geometry": {"type": "Point", "coordinates": [176.9265568649832, 4.512049189981645]}}, {"type": "Feature", "properties": {"norad_id": 32052, "name": "COSMOS 2429", "group": "musson", "lat": -3.9208908678153316, "lon": -25.259667984966125, "alt_km": 956.6653594250602, "timestamp": "2025-12-23T16:57:12.621988+00:00", "meta": {"OBJECT_NAME": "COSMOS 2429", "OBJECT_ID": "2007-038A", "EPOCH": "2025-12-23T01:15:22.856832", "MEAN_MOTION": 13.75150388, "ECCENTRICITY": 0.00386387, "INCLINATION": 82.9807, "RA_OF_ASC_NODE": 335.7061, "ARG_OF_PERICENTER": 9.5193, "MEAN_ANOMALY": 350.6687, "EPHEMERIS_TYPE": 0, "CLASSIFICATION_TYPE": "U", "NORAD_CAT_ID": 32052, "ELEMENT_SET_NO": 999, "REV_AT_EPOCH": 91744, "BSTAR": 3.8660516e-05, "MEAN_MOTION_DOT": 5.2e-07, "MEAN_MOTION_DDOT": 0}, "tle": {"line1": "1 32052U 07038A   25357.05234788  .00000052  00000+0  38661-4 0  9993", "line2": "2 32052  82.9807 335.7061 0038638   9.5193 350.6687 13.75150388917449"}}, "geometry": {"type": "Point", "coordinates": [-25.259667984966125, -3.9208908678153316]}}, {"type": "Feature", "properties": {"norad_id": 35635, "name": "COSMOS 2454", "group": "musson", "lat": 44.083851503995554, "lon": -26.54658651933605, "alt_km": 925.4221706488788, "timestamp": "2025-12-23T16:57:12.621999+00:00", "meta": {"OBJECT_NAME": "COSMOS 2454", "OBJECT_ID": "2009-039A", "EPOCH": "2025-12-23T05:02:28.181760", "MEAN_MOTION": 13.8992992, "ECCENTRICITY": 0.00201084, "INCLINATION": 82.9556, "RA_OF_ASC_NODE": 160.7077, "ARG_OF_PERICENTER": 45.6047, "MEAN_ANOMALY": 127.4016, "EPHEMERIS_TYPE": 0, "CLASSIFICATION_TYPE": "U", "NORAD_CAT_ID": 35635, "ELEMENT_SET_NO": 999, "REV_AT_EPOCH": 83295, "BSTAR": 4.6270001e-05, "MEAN_MOTION_DOT": 7.3e-07, "MEAN_MOTION_DDOT": 0}, "tle": {"line1": "1 35635U 09039A   25357.21004840  .00000073  00000+0  46270-4 0  9996", "line2": "2 35635  82.9556 160.7077 0020108  45.6047 127.4016 13.89929920832954"}}, "geometry": {"type": "Point", "coordinates": [-26.54658651933605, 44.083851503995554]}}, {"type": "Feature", "properties": {"norad_id": 36519, "name": "COSMOS 2463", "group": "musson", "lat": 5.5467517714824455, "lon": -162.0341698308687, "alt_km": 992.2494142295609, "timestamp": "2025-12-23T16:57:12.622009+00:00", "meta": {"OBJECT_NAME": "COSMOS 2463", "OBJECT_ID": "2010-017A", "EPOCH": "2025-12-23T04:10:52.502592", "MEAN_MOTION": 13.71650047, "ECCENTRICITY": 0.00347734, "INCLINATION": 82.9604, "RA_OF_ASC_NODE": 19.0443, "ARG_OF_PERICENTER": 258.0168, "MEAN_ANOMALY": 170.2922, "EPHEMERIS_TYPE": 0, "CLASSIFICATION_TYPE": "U", "NORAD_CAT_ID": 36519, "ELEMENT_SET_NO": 999, "REV_AT_EPOCH": 78380, "BSTAR": 3.4461345e-05, "MEAN_MOTION_DOT": 4.6e-07, "MEAN_MOTION_DDOT": 0}, "tle": {"line1": "1 36519U 10017A   25357.17421878  .00000046  00000+0  34461-4 0  9994", "line2": "2 36519  82.9604  19.0443 0034773 258.0168 170.2922 13.71650047783803"}}, "geometry": {"type": "Point", "coordinates": [-162.0341698308687, 5.5467517714824455]}}]}